STARLINK-2736           
1 48640U 21044C   26068.52800714  .00000197  00000+0  18778-4 0  9993
2 48640  53.1613 114.5850 0001377  87.0996 273.0163 15.30205471263791
TOMORROW-S1             
1 60479U 24149M   26068.72470524  .00008620  00000+0  28856-3 0  9996
2 60479  97.3791 149.6044 0001819 207.2040 152.9106 15.31198362 86867
